start=new Date('2022-08-09T00:00:00.000Z').valueOf();
sats=[{"RCS_SIZE":"LARGE","MEAN_ELEMENT_THEORY":"SGP4","CENTER_NAME":"EARTH","MEAN_MOTION":"15.06425142","SITE":"AFETR","COUNTRY_CODE":"US","PERIAPSIS":"546.159","REV_AT_EPOCH":"7965","TIME_SYSTEM":"UTC","ELEMENT_SET_NO":"999","TLE_LINE1":"1 47813U 21018AC  22220.83664004  .00009611  00000-0  66278-3 0  9993","BSTAR":"0.00066278000000","FILE":"3532305","REF_FRAME":"TEME","TLE_LINE2":"2 47813  53.0557 347.2982 0001412  87.5111 272.6039 15.06425142 79652","ECCENTRICITY":"0.00014120","ARG_OF_PERICENTER":"87.5111","NORAD_CAT_ID":"47813","MEAN_MOTION_DOT":"0.00009611","SEMIMAJOR_AXIS":"6925.272","OBJECT_TYPE":"PAYLOAD","MEAN_ANOMALY":"272.6039","CLASSIFICATION_TYPE":"U","OBJECT_ID":"2021-018AC","PERIOD":"95.591","DECAY_DATE":null,"INCLINATION":"53.0557","EPHEMERIS_TYPE":"0","LAUNCH_DATE":"2021-03-11","RA_OF_ASC_NODE":"347.2982","APOAPSIS":"548.114","MEAN_MOTION_DDOT":"0.0000000000000","GP_ID":"209860674","OBJECT_NAME":"STARLINK-2394","EPOCH":"2022-08-08T20:04:45.699456"},{"RA_OF_ASC_NODE":"8.6745","EPHEMERIS_TYPE":"0","LAUNCH_DATE":"2021-03-11","GP_ID":"209860924","OBJECT_NAME":"STARLINK-2395","EPOCH":"2022-08-08T12:41:34.309248","APOAPSIS":"548.142","MEAN_MOTION_DDOT":"0.0000000000000","ARG_OF_PERICENTER":"74.3289","NORAD_CAT_ID":"47814","MEAN_MOTION_DOT":"0.00002353","ECCENTRICITY":"0.00013730","OBJECT_ID":"2021-018AD","DECAY_DATE":null,"PERIOD":"95.592","INCLINATION":"53.0553","SEMIMAJOR_AXIS":"6925.326","OBJECT_TYPE":"PAYLOAD","MEAN_ANOMALY":"285.7851","CLASSIFICATION_TYPE":"U","REV_AT_EPOCH":"7933","TIME_SYSTEM":"UTC","TLE_LINE2":"2 47814  53.0553   8.6745 0001373  74.3289 285.7851 15.06407472 79338","TLE_LINE1":"1 47814U 21018AD  22220.52886932  .00002353  00000-0  17678-3 0  9992","ELEMENT_SET_NO":"999","FILE":"3532305","BSTAR":"0.00017678000000","REF_FRAME":"TEME","CENTER_NAME":"EARTH","MEAN_ELEMENT_THEORY":"SGP4","SITE":"AFETR","MEAN_MOTION":"15.06407472","RCS_SIZE":"LARGE","PERIAPSIS":"546.240","COUNTRY_CODE":"US"},{"RCS_SIZE":"LARGE","SITE":"AFETR","MEAN_MOTION":"15.06409689","MEAN_ELEMENT_THEORY":"SGP4","CENTER_NAME":"EARTH","COUNTRY_CODE":"US","PERIAPSIS":"546.224","TIME_SYSTEM":"UTC","REV_AT_EPOCH":"7938","TLE_LINE1":"1 47815U 21018AE  22220.82604365  .00002586  00000-0  19240-3 0  9999","ELEMENT_SET_NO":"999","FILE":"3532305","REF_FRAME":"TEME","BSTAR":"0.00019240000000","TLE_LINE2":"2 47815  53.0561   2.3380 0001386  75.5384 284.5759 15.06409689 79388","ECCENTRICITY":"0.00013860","MEAN_MOTION_DOT":"0.00002586","ARG_OF_PERICENTER":"75.5384","NORAD_CAT_ID":"47815","OBJECT_TYPE":"PAYLOAD","MEAN_ANOMALY":"284.5759","CLASSIFICATION_TYPE":"U","SEMIMAJOR_AXIS":"6925.319","INCLINATION":"53.0561","OBJECT_ID":"2021-018AE","DECAY_DATE":null,"PERIOD":"95.592","EPHEMERIS_TYPE":"0","LAUNCH_DATE":"2021-03-11","RA_OF_ASC_NODE":"2.3380","MEAN_MOTION_DDOT":"0.0000000000000","APOAPSIS":"548.144","EPOCH":"2022-08-08T19:49:30.171360","GP_ID":"209861176","OBJECT_NAME":"STARLINK-2396"},{"EPOCH":"2022-08-08T16:51:02.498400","OBJECT_NAME":"STARLINK-2399","GP_ID":"209861427","MEAN_MOTION_DDOT":"0.0000000000000","APOAPSIS":"548.081","RA_OF_ASC_NODE":"7.8929","LAUNCH_DATE":"2021-03-11","EPHEMERIS_TYPE":"0","INCLINATION":"53.0548","PERIOD":"95.592","DECAY_DATE":null,"OBJECT_ID":"2021-018AF","CLASSIFICATION_TYPE":"U","MEAN_ANOMALY":"270.2878","OBJECT_TYPE":"PAYLOAD","SEMIMAJOR_AXIS":"6925.324","MEAN_MOTION_DOT":"0.00003066","NORAD_CAT_ID":"47816","ARG_OF_PERICENTER":"89.8259","ECCENTRICITY":"0.00012880","TLE_LINE2":"2 47816  53.0548   7.8929 0001288  89.8259 270.2878 15.06407937 79291","FILE":"3532305","BSTAR":"0.00022459000000","REF_FRAME":"TEME","TLE_LINE1":"1 47816U 21018AF  22220.70211225  .00003066  00000-0  22459-3 0  9996","ELEMENT_SET_NO":"999","TIME_SYSTEM":"UTC","REV_AT_EPOCH":"7929","PERIAPSIS":"546.297","COUNTRY_CODE":"US","MEAN_MOTION":"15.06407937","SITE":"AFETR","CENTER_NAME":"EARTH","MEAN_ELEMENT_THEORY":"SGP4","RCS_SIZE":"LARGE"},{"ECCENTRICITY":"0.00011280","ARG_OF_PERICENTER":"83.9537","NORAD_CAT_ID":"47817","MEAN_MOTION_DOT":"0.00006206","SEMIMAJOR_AXIS":"6925.308","OBJECT_TYPE":"PAYLOAD","MEAN_ANOMALY":"276.1580","CLASSIFICATION_TYPE":"U","OBJECT_ID":"2021-018AG","DECAY_DATE":null,"PERIOD":"95.591","INCLINATION":"53.0538","LAUNCH_DATE":"2021-03-11","EPHEMERIS_TYPE":"0","RA_OF_ASC_NODE":"8.7198","APOAPSIS":"547.955","MEAN_MOTION_DDOT":"0.0000000000000","GP_ID":"209837997","OBJECT_NAME":"STARLINK-2400","EPOCH":"2022-08-08T12:30:57.655296","RCS_SIZE":"LARGE","CENTER_NAME":"EARTH","MEAN_ELEMENT_THEORY":"SGP4","SITE":"AFETR","MEAN_MOTION":"15.06413079","COUNTRY_CODE":"US","PERIAPSIS":"546.392","REV_AT_EPOCH":"7893","TIME_SYSTEM":"UTC","ELEMENT_SET_NO":"999","TLE_LINE1":"1 47817U 21018AG  22220.52150064  .00006206  00000-0  43502-3 0  9991","FILE":"3532230","REF_FRAME":"TEME","BSTAR":"0.00043502000000","TLE_LINE2":"2 47817  53.0538   8.7198 0001128  83.9537 276.1580 15.06413079 78935"},{"RA_OF_ASC_NODE":"12.3830","LAUNCH_DATE":"2021-03-11","EPHEMERIS_TYPE":"0","EPOCH":"2022-08-08T19:30:53.674272","GP_ID":"209838051","OBJECT_NAME":"STARLINK-2401","MEAN_MOTION_DDOT":"0.0000000000000","APOAPSIS":"548.101","MEAN_MOTION_DOT":"0.00004611","ARG_OF_PERICENTER":"88.4716","NORAD_CAT_ID":"47818","ECCENTRICITY":"0.00013490","INCLINATION":"53.0547","OBJECT_ID":"2021-018AH","DECAY_DATE":null,"PERIOD":"95.591","OBJECT_TYPE":"PAYLOAD","MEAN_ANOMALY":"271.6428","CLASSIFICATION_TYPE":"U","SEMIMAJOR_AXIS":"6925.302","TIME_SYSTEM":"UTC","REV_AT_EPOCH":"7891","TLE_LINE2":"2 47818  53.0547  12.3830 0001349  88.4716 271.6428 15.06415121 78913","TLE_LINE1":"1 47818U 21018AH  22220.81312123  .00004611  00000-0  32809-3 0  9996","ELEMENT_SET_NO":"999","FILE":"3532227","REF_FRAME":"TEME","BSTAR":"0.00032809000000","SITE":"AFETR","MEAN_MOTION":"15.06415121","CENTER_NAME":"EARTH","MEAN_ELEMENT_THEORY":"SGP4","RCS_SIZE":"LARGE","PERIAPSIS":"546.233","COUNTRY_CODE":"US"},{"ECCENTRICITY":"0.00013320","MEAN_MOTION_DOT":"0.00002643","ARG_OF_PERICENTER":"68.6671","NORAD_CAT_ID":"47819","MEAN_ANOMALY":"291.4460","OBJECT_TYPE":"PAYLOAD","CLASSIFICATION_TYPE":"U","SEMIMAJOR_AXIS":"6925.311","INCLINATION":"53.0558","OBJECT_ID":"2021-018AJ","DECAY_DATE":null,"PERIOD":"95.591","LAUNCH_DATE":"2021-03-11","EPHEMERIS_TYPE":"0","RA_OF_ASC_NODE":"8.6810","MEAN_MOTION_DDOT":"0.0000000000000","APOAPSIS":"548.098","EPOCH":"2022-08-08T12:34:54.028416","GP_ID":"209831985","OBJECT_NAME":"STARLINK-2402","RCS_SIZE":"LARGE","SITE":"AFETR","MEAN_MOTION":"15.06412257","MEAN_ELEMENT_THEORY":"SGP4","CENTER_NAME":"EARTH","COUNTRY_CODE":"US","PERIAPSIS":"546.254","TIME_SYSTEM":"UTC","REV_AT_EPOCH":"7933","TLE_LINE1":"1 47819U 21018AJ  22220.52423644  .00002643  00000-0  19620-3 0  9995","ELEMENT_SET_NO":"999","FILE":"3532128","BSTAR":"0.00019620000000","REF_FRAME":"TEME","TLE_LINE2":"2 47819  53.0558   8.6810 0001332  68.6671 291.4460 15.06412257 79334"},{"INCLINATION":"53.0549","PERIOD":"95.592","DECAY_DATE":null,"OBJECT_ID":"2021-018AK","CLASSIFICATION_TYPE":"U","MEAN_ANOMALY":"272.1708","OBJECT_TYPE":"PAYLOAD","SEMIMAJOR_AXIS":"6925.323","MEAN_MOTION_DOT":"0.00003396","NORAD_CAT_ID":"47820","ARG_OF_PERICENTER":"87.9440","ECCENTRICITY":"0.00013880","EPOCH":"2022-08-08T20:06:05.659200","OBJECT_NAME":"STARLINK-2403","GP_ID":"209861927","MEAN_MOTION_DDOT":"0.0000000000000","APOAPSIS":"548.149","RA_OF_ASC_NODE":"17.2936","LAUNCH_DATE":"2021-03-11","EPHEMERIS_TYPE":"0","PERIAPSIS":"546.226","COUNTRY_CODE":"US","SITE":"AFETR","MEAN_MOTION":"15.06408496","MEAN_ELEMENT_THEORY":"SGP4","CENTER_NAME":"EARTH","RCS_SIZE":"LARGE","TLE_LINE2":"2 47820  53.0549  17.2936 0001388  87.9440 272.1708 15.06408496 79230","BSTAR":"0.00024674000000","FILE":"3532305","REF_FRAME":"TEME","TLE_LINE1":"1 47820U 21018AK  22220.83756550  .00003396  00000-0  24674-3 0  9997","ELEMENT_SET_NO":"999","TIME_SYSTEM":"UTC","REV_AT_EPOCH":"7923"},{"PERIAPSIS":"546.214","COUNTRY_CODE":"US","CENTER_NAME":"EARTH","MEAN_ELEMENT_THEORY":"SGP4","SITE":"AFETR","MEAN_MOTION":"15.06411367","RCS_SIZE":"LARGE","TLE_LINE2":"2 47821  53.0566   7.3934 0001393 106.2588 253.8554 15.06411367 78989","TLE_LINE1":"1 47821U 21018AL  22220.81636616  .00002173  00000-0  16469-3 0  9991","ELEMENT_SET_NO":"999","BSTAR":"0.00016469000000","FILE":"3532219","REF_FRAME":"TEME","REV_AT_EPOCH":"7898","TIME_SYSTEM":"UTC","OBJECT_ID":"2021-018AL","DECAY_DATE":null,"PERIOD":"95.591","INCLINATION":"53.0566","SEMIMAJOR_AXIS":"6925.314","OBJECT_TYPE":"PAYLOAD","MEAN_ANOMALY":"253.8554","CLASSIFICATION_TYPE":"U","ARG_OF_PERICENTER":"106.2588","NORAD_CAT_ID":"47821","MEAN_MOTION_DOT":"0.00002173","ECCENTRICITY":"0.00013930","GP_ID":"209837567","OBJECT_NAME":"STARLINK-2406","EPOCH":"2022-08-08T19:35:34.036224","APOAPSIS":"548.143","MEAN_MOTION_DDOT":"0.0000000000000","RA_OF_ASC_NODE":"7.3934","EPHEMERIS_TYPE":"0","LAUNCH_DATE":"2021-03-11"},{"MEAN_MOTION":"15.06416823","SITE":"AFETR","MEAN_ELEMENT_THEORY":"SGP4","CENTER_NAME":"EARTH","RCS_SIZE":"LARGE","PERIAPSIS":"546.229","COUNTRY_CODE":"US","TIME_SYSTEM":"UTC","REV_AT_EPOCH":"7918","TLE_LINE2":"2 47822  53.0550  17.3280 0001347  83.0659 277.0484 15.06416823 79183","ELEMENT_SET_NO":"999","TLE_LINE1":"1 47822U 21018AM  22220.82555955  .00005297  00000-0  37406-3 0  9993","FILE":"3532305","REF_FRAME":"TEME","BSTAR":"0.00037406000000","MEAN_MOTION_DOT":"0.00005297","ARG_OF_PERICENTER":"83.0659","NORAD_CAT_ID":"47822","ECCENTRICITY":"0.00013470","INCLINATION":"53.0550","OBJECT_ID":"2021-018AM","DECAY_DATE":null,"PERIOD":"95.591","MEAN_ANOMALY":"277.0484","OBJECT_TYPE":"PAYLOAD","CLASSIFICATION_TYPE":"U","SEMIMAJOR_AXIS":"6925.297","RA_OF_ASC_NODE":"17.3280","EPHEMERIS_TYPE":"0","LAUNCH_DATE":"2021-03-11","EPOCH":"2022-08-08T19:48:48.345120","GP_ID":"209860925","OBJECT_NAME":"STARLINK-2407","MEAN_MOTION_DDOT":"0.0000000000000","APOAPSIS":"548.095"}];
